{
  "type": "FeatureCollection",
  "features": [
    {
      "type": "Feature",
      "properties": {
        "OBJECT_NAME": "FENGYUN 1C DEB",
        "OBJECT_ID": "1999-025CH",
        "EPOCH": "2025-11-29T14:11:36.820032",
        "MEAN_MOTION": 14.57960826,
        "ECCENTRICITY": 0.004169,
        "INCLINATION": 99.0372,
        "RA_OF_ASC_NODE": 333.0086,
        "ARG_OF_PERICENTER": 100.7806,
        "MEAN_ANOMALY": 25.6109,
        "EPHEMERIS_TYPE": 0,
        "CLASSIFICATION_TYPE": "U",
        "NORAD_CAT_ID": 29791,
        "ELEMENT_SET_NO": 999,
        "REV_AT_EPOCH": 98654,
        "BSTAR": 0.0014252,
        "MEAN_MOTION_DOT": 6.571e-05,
        "MEAN_MOTION_DDOT": 0,
        "norad_id": 29791,
        "name": "FENGYUN 1C DEB",
        "group": "fengyun-1c-debris",
        "longitude_deg": NaN,
        "latitude_deg": NaN,
        "alt_km": NaN,
        "orbit_class": "HEO",
        "timestamp": "2025-11-30T04:57:05.891363+00:00"
      },
      "geometry": {
        "type": "Point",
        "coordinates": [
          NaN,
          NaN
        ]
      }
    },
    {
      "type": "Feature",
      "properties": {
        "OBJECT_NAME": "FENGYUN 1C DEB",
        "OBJECT_ID": "1999-025CJ",
        "EPOCH": "2025-11-29T15:48:08.015040",
        "MEAN_MOTION": 14.15057335,
        "ECCENTRICITY": 0.0048854,
        "INCLINATION": 98.7591,
        "RA_OF_ASC_NODE": 24.4626,
        "ARG_OF_PERICENTER": 74.1225,
        "MEAN_ANOMALY": 286.5325,
        "EPHEMERIS_TYPE": 0,
        "CLASSIFICATION_TYPE": "U",
        "NORAD_CAT_ID": 29792,
        "ELEMENT_SET_NO": 999,
        "REV_AT_EPOCH": 96754,
        "BSTAR": 0.0013168,
        "MEAN_MOTION_DOT": 2.538e-05,
        "MEAN_MOTION_DDOT": 0,
        "norad_id": 29792,
        "name": "FENGYUN 1C DEB",
        "group": "fengyun-1c-debris",
        "longitude_deg": NaN,
        "latitude_deg": NaN,
        "alt_km": NaN,
        "orbit_class": "HEO",
        "timestamp": "2025-11-30T04:57:05.891371+00:00"
      },
      "geometry": {
        "type": "Point",
        "coordinates": [
          NaN,
          NaN
        ]
      }
    },
    {
      "type": "Feature",
      "properties": {
        "OBJECT_NAME": "FENGYUN 1C DEB",
        "OBJECT_ID": "1999-025CK",
        "EPOCH": "2025-11-28T23:45:14.076000",
        "MEAN_MOTION": 14.01016255,
        "ECCENTRICITY": 0.01444275,
        "INCLINATION": 98.356,
        "RA_OF_ASC_NODE": 152.9214,
        "ARG_OF_PERICENTER": 17.2277,
        "MEAN_ANOMALY": 133.6798,
        "EPHEMERIS_TYPE": 0,
        "CLASSIFICATION_TYPE": "U",
        "NORAD_CAT_ID": 29793,
        "ELEMENT_SET_NO": 999,
        "REV_AT_EPOCH": 95956,
        "BSTAR": 0.00092766386,
        "MEAN_MOTION_DOT": 1.483e-05,
        "MEAN_MOTION_DDOT": 0,
        "norad_id": 29793,
        "name": "FENGYUN 1C DEB",
        "group": "fengyun-1c-debris",
        "longitude_deg": NaN,
        "latitude_deg": NaN,
        "alt_km": NaN,
        "orbit_class": "HEO",
        "timestamp": "2025-11-30T04:57:05.891377+00:00"
      },
      "geometry": {
        "type": "Point",
        "coordinates": [
          NaN,
          NaN
        ]
      }
    },
    {
      "type": "Feature",
      "properties": {
        "OBJECT_NAME": "FENGYUN 1C DEB",
        "OBJECT_ID": "1999-025CL",
        "EPOCH": "2025-11-29T17:02:51.895104",
        "MEAN_MOTION": 14.08955166,
        "ECCENTRICITY": 0.0157595,
        "INCLINATION": 98.1995,
        "RA_OF_ASC_NODE": 133.507,
        "ARG_OF_PERICENTER": 77.8084,
        "MEAN_ANOMALY": 43.3291,
        "EPHEMERIS_TYPE": 0,
        "CLASSIFICATION_TYPE": "U",
        "NORAD_CAT_ID": 29794,
        "ELEMENT_SET_NO": 999,
        "REV_AT_EPOCH": 96664,
        "BSTAR": 0.00053326,
        "MEAN_MOTION_DOT": 9.98e-06,
        "MEAN_MOTION_DDOT": 0,
        "norad_id": 29794,
        "name": "FENGYUN 1C DEB",
        "group": "fengyun-1c-debris",
        "longitude_deg": NaN,
        "latitude_deg": NaN,
        "alt_km": NaN,
        "orbit_class": "HEO",
        "timestamp": "2025-11-30T04:57:05.891383+00:00"
      },
      "geometry": {
        "type": "Point",
        "coordinates": [
          NaN,
          NaN
        ]
      }
    },
    {
      "type": "Feature",
      "properties": {
        "OBJECT_NAME": "FENGYUN 1C DEB",
        "OBJECT_ID": "1999-025CM",
        "EPOCH": "2025-11-29T07:20:20.815872",
        "MEAN_MOTION": 13.92899739,
        "ECCENTRICITY": 0.0111157,
        "INCLINATION": 98.8696,
        "RA_OF_ASC_NODE": 103.2332,
        "ARG_OF_PERICENTER": 313.3535,
        "MEAN_ANOMALY": 65.4629,
        "EPHEMERIS_TYPE": 0,
        "CLASSIFICATION_TYPE": "U",
        "NORAD_CAT_ID": 29795,
        "ELEMENT_SET_NO": 999,
        "REV_AT_EPOCH": 95878,
        "BSTAR": 0.00020627597,
        "MEAN_MOTION_DOT": 2.39e-06,
        "MEAN_MOTION_DDOT": 0,
        "norad_id": 29795,
        "name": "FENGYUN 1C DEB",
        "group": "fengyun-1c-debris",
        "longitude_deg": NaN,
        "latitude_deg": NaN,
        "alt_km": NaN,
        "orbit_class": "HEO",
        "timestamp": "2025-11-30T04:57:05.891391+00:00"
      },
      "geometry": {
        "type": "Point",
        "coordinates": [
          NaN,
          NaN
        ]
      }
    },
    {
      "type": "Feature",
      "properties": {
        "OBJECT_NAME": "FENGYUN 1C DEB",
        "OBJECT_ID": "1999-025CN",
        "EPOCH": "2025-11-29T15:44:51.085248",
        "MEAN_MOTION": 14.1228746,
        "ECCENTRICITY": 0.0051591,
        "INCLINATION": 98.8663,
        "RA_OF_ASC_NODE": 25.6715,
        "ARG_OF_PERICENTER": 305.5625,
        "MEAN_ANOMALY": 179.7842,
        "EPHEMERIS_TYPE": 0,
        "CLASSIFICATION_TYPE": "U",
        "NORAD_CAT_ID": 29796,
        "ELEMENT_SET_NO": 999,
        "REV_AT_EPOCH": 96876,
        "BSTAR": 0.00066586,
        "MEAN_MOTION_DOT": 1.196e-05,
        "MEAN_MOTION_DDOT": 0,
        "norad_id": 29796,
        "name": "FENGYUN 1C DEB",
        "group": "fengyun-1c-debris",
        "longitude_deg": NaN,
        "latitude_deg": NaN,
        "alt_km": NaN,
        "orbit_class": "HEO",
        "timestamp": "2025-11-30T04:57:05.891399+00:00"
      },
      "geometry": {
        "type": "Point",
        "coordinates": [
          NaN,
          NaN
        ]
      }
    },
    {
      "type": "Feature",
      "properties": {
        "OBJECT_NAME": "FENGYUN 1C DEB",
        "OBJECT_ID": "1999-025CQ",
        "EPOCH": "2025-11-29T17:58:20.182944",
        "MEAN_MOTION": 13.99487876,
        "ECCENTRICITY": 0.0111027,
        "INCLINATION": 99.2967,
        "RA_OF_ASC_NODE": 37.4564,
        "ARG_OF_PERICENTER": 308.1432,
        "MEAN_ANOMALY": 166.0457,
        "EPHEMERIS_TYPE": 0,
        "CLASSIFICATION_TYPE": "U",
        "NORAD_CAT_ID": 29798,
        "ELEMENT_SET_NO": 999,
        "REV_AT_EPOCH": 95743,
        "BSTAR": 0.0012251,
        "MEAN_MOTION_DOT": 1.836e-05,
        "MEAN_MOTION_DDOT": 0,
        "norad_id": 29798,
        "name": "FENGYUN 1C DEB",
        "group": "fengyun-1c-debris",
        "longitude_deg": NaN,
        "latitude_deg": NaN,
        "alt_km": NaN,
        "orbit_class": "HEO",
        "timestamp": "2025-11-30T04:57:05.891406+00:00"
      },
      "geometry": {
        "type": "Point",
        "coordinates": [
          NaN,
          NaN
        ]
      }
    },
    {
      "type": "Feature",
      "properties": {
        "OBJECT_NAME": "FENGYUN 1C DEB",
        "OBJECT_ID": "1999-025CS",
        "EPOCH": "2025-11-26T13:34:05.839968",
        "MEAN_MOTION": 13.98442978,
        "ECCENTRICITY": 0.01329665,
        "INCLINATION": 98.2919,
        "RA_OF_ASC_NODE": 353.7184,
        "ARG_OF_PERICENTER": 272.7483,
        "MEAN_ANOMALY": 239.5799,
        "EPHEMERIS_TYPE": 0,
        "CLASSIFICATION_TYPE": "U",
        "NORAD_CAT_ID": 29800,
        "ELEMENT_SET_NO": 999,
        "REV_AT_EPOCH": 95350,
        "BSTAR": 0.0019538135,
        "MEAN_MOTION_DOT": 2.976e-05,
        "MEAN_MOTION_DDOT": 0,
        "norad_id": 29800,
        "name": "FENGYUN 1C DEB",
        "group": "fengyun-1c-debris",
        "longitude_deg": NaN,
        "latitude_deg": NaN,
        "alt_km": NaN,
        "orbit_class": "HEO",
        "timestamp": "2025-11-30T04:57:05.891413+00:00"
      },
      "geometry": {
        "type": "Point",
        "coordinates": [
          NaN,
          NaN
        ]
      }
    },
    {
      "type": "Feature",
      "properties": {
        "OBJECT_NAME": "FENGYUN 1C DEB",
        "OBJECT_ID": "1999-025CT",
        "EPOCH": "2025-11-29T16:47:05.861760",
        "MEAN_MOTION": 14.35869545,
        "ECCENTRICITY": 0.0103209,
        "INCLINATION": 98.7946,
        "RA_OF_ASC_NODE": 234.4585,
        "ARG_OF_PERICENTER": 306.2065,
        "MEAN_ANOMALY": 107.2893,
        "EPHEMERIS_TYPE": 0,
        "CLASSIFICATION_TYPE": "U",
        "NORAD_CAT_ID": 29801,
        "ELEMENT_SET_NO": 999,
        "REV_AT_EPOCH": 98754,
        "BSTAR": 0.00021712,
        "MEAN_MOTION_DOT": 6.19e-06,
        "MEAN_MOTION_DDOT": 0,
        "norad_id": 29801,
        "name": "FENGYUN 1C DEB",
        "group": "fengyun-1c-debris",
        "longitude_deg": NaN,
        "latitude_deg": NaN,
        "alt_km": NaN,
        "orbit_class": "HEO",
        "timestamp": "2025-11-30T04:57:05.891421+00:00"
      },
      "geometry": {
        "type": "Point",
        "coordinates": [
          NaN,
          NaN
        ]
      }
    }
  ]
}